{
  "type": "FeatureCollection",
  "features": [
    {
      "type": "Feature",
      "properties": {
        "norad_id": 66608,
        "name": "STARLINK-36036",
        "group": "last-30-days",
        "lat": -12.001415024887564,
        "lon": 8.737452764591236,
        "alt_km": 415.827066306254,
        "timestamp": "2025-12-15T15:53:18.661200+00:00",
        "meta_object_name": "STARLINK-36036",
        "meta_object_id": "2025-270W",
        "meta_epoch": "2025-12-14T22:02:05.766720",
        "meta_mean_motion": 15.50605072,
        "meta_eccentricity": 0.00016642,
        "meta_inclination": 42.9993,
        "meta_ra_of_asc_node": 179.9028,
        "meta_arg_of_pericenter": 274.4104,
        "meta_mean_anomaly": 85.6566,
        "meta_ephemeris_type": 0,
        "meta_classification_type": "U",
        "meta_norad_cat_id": 66608,
        "meta_element_set_no": 999,
        "meta_rev_at_epoch": 452,
        "meta_bstar": 0.0006099243,
        "meta_mean_motion_dot": 0.00035636,
        "meta_mean_motion_ddot": 0,
        "tle_line1": "1 66608U 25270W   25348.91812230  .00035636  00000+0  60992-3 0  9991",
        "tle_line2": "2 66608  42.9993 179.9028 0001664 274.4104  85.6566 15.50605072  4527"
      },
      "geometry": {
        "type": "Point",
        "coordinates": [
          8.737452764591236,
          -12.001415024887564
        ]
      }
    },
    {
      "type": "Feature",
      "properties": {
        "norad_id": 66609,
        "name": "STARLINK-36034",
        "group": "last-30-days",
        "lat": -13.292008891031033,
        "lon": 10.231898745503795,
        "alt_km": 416.0238649530702,
        "timestamp": "2025-12-15T15:53:18.661209+00:00",
        "meta_object_name": "STARLINK-36034",
        "meta_object_id": "2025-270X",
        "meta_epoch": "2025-12-14T22:01:36.242976",
        "meta_mean_motion": 15.50602311,
        "meta_eccentricity": 0.00017878,
        "meta_inclination": 42.9985,
        "meta_ra_of_asc_node": 179.9,
        "meta_arg_of_pericenter": 285.0257,
        "meta_mean_anomaly": 75.0405,
        "meta_ephemeris_type": 0,
        "meta_classification_type": "U",
        "meta_norad_cat_id": 66609,
        "meta_element_set_no": 999,
        "meta_rev_at_epoch": 452,
        "meta_bstar": 0.0010472746,
        "meta_mean_motion_dot": 0.00061634,
        "meta_mean_motion_ddot": 0,
        "tle_line1": "1 66609U 25270X   25348.91778059  .00061634  00000+0  10473-2 0  9997",
        "tle_line2": "2 66609  42.9985 179.9000 0001787 285.0257  75.0405 15.50602311  4520"
      },
      "geometry": {
        "type": "Point",
        "coordinates": [
          10.231898745503795,
          -13.292008891031033
        ]
      }
    },
    {
      "type": "Feature",
      "properties": {
        "norad_id": 66610,
        "name": "STARLINK-35680",
        "group": "last-30-days",
        "lat": -14.532704649736443,
        "lon": 11.693156954723822,
        "alt_km": 416.0112603647376,
        "timestamp": "2025-12-15T15:53:18.661218+00:00",
        "meta_object_name": "STARLINK-35680",
        "meta_object_id": "2025-270Y",
        "meta_epoch": "2025-12-14T22:01:06.676896",
        "meta_mean_motion": 15.50593441,
        "meta_eccentricity": 0.00013482,
        "meta_inclination": 42.9987,
        "meta_ra_of_asc_node": 179.8972,
        "meta_arg_of_pericenter": 275.2222,
        "meta_mean_anomaly": 84.8485,
        "meta_ephemeris_type": 0,
        "meta_classification_type": "U",
        "meta_norad_cat_id": 66610,
        "meta_element_set_no": 999,
        "meta_rev_at_epoch": 479,
        "meta_bstar": 0.00096405875,
        "meta_mean_motion_dot": 0.00056655,
        "meta_mean_motion_ddot": 0,
        "tle_line1": "1 66610U 25270Y   25348.91743839  .00056655  00000+0  96406-3 0  9995",
        "tle_line2": "2 66610  42.9987 179.8972 0001348 275.2222  84.8485 15.50593441  4795"
      },
      "geometry": {
        "type": "Point",
        "coordinates": [
          11.693156954723822,
          -14.532704649736443
        ]
      }
    },
    {
      "type": "Feature",
      "properties": {
        "norad_id": 66611,
        "name": "STARLINK-35583",
        "group": "last-30-days",
        "lat": -15.73584519878327,
        "lon": 13.136301636572986,
        "alt_km": 416.1225315131942,
        "timestamp": "2025-12-15T15:53:18.661226+00:00",
        "meta_object_name": "STARLINK-35583",
        "meta_object_id": "2025-270Z",
        "meta_epoch": "2025-12-14T22:00:36.969120",
        "meta_mean_motion": 15.50581574,
        "meta_eccentricity": 0.00016131,
        "meta_inclination": 42.9991,
        "meta_ra_of_asc_node": 179.8943,
        "meta_arg_of_pericenter": 272.165,
        "meta_mean_anomaly": 87.9026,
        "meta_ephemeris_type": 0,
        "meta_classification_type": "U",
        "meta_norad_cat_id": 66611,
        "meta_element_set_no": 999,
        "meta_rev_at_epoch": 479,
        "meta_bstar": 0.00063322634,
        "meta_mean_motion_dot": 0.00036986,
        "meta_mean_motion_ddot": 0,
        "tle_line1": "1 66611U 25270Z   25348.91709455  .00036986  00000+0  63323-3 0  9999",
        "tle_line2": "2 66611  42.9991 179.8943 0001613 272.1650  87.9026 15.50581574  4794"
      },
      "geometry": {
        "type": "Point",
        "coordinates": [
          13.136301636572986,
          -15.73584519878327
        ]
      }
    },
    {
      "type": "Feature",
      "properties": {
        "norad_id": 66612,
        "name": "STARLINK-36039",
        "group": "last-30-days",
        "lat": 41.784313756389885,
        "lon": -77.74858154077425,
        "alt_km": 438.6996836040662,
        "timestamp": "2025-12-15T15:53:18.661235+00:00",
        "meta_object_name": "STARLINK-36039",
        "meta_object_id": "2025-270AA",
        "meta_epoch": "2025-12-14T20:00:06.000192",
        "meta_mean_motion": 15.40685905,
        "meta_eccentricity": 0.00020755,
        "meta_inclination": 42.9995,
        "meta_ra_of_asc_node": 180.5594,
        "meta_arg_of_pericenter": 271.9182,
        "meta_mean_anomaly": 268.8256,
        "meta_ephemeris_type": 0,
        "meta_classification_type": "U",
        "meta_norad_cat_id": 66612,
        "meta_element_set_no": 999,
        "meta_rev_at_epoch": 473,
        "meta_bstar": 0.00072149356,
        "meta_mean_motion_dot": 0.0002994,
        "meta_mean_motion_ddot": 0,
        "tle_line1": "1 66612U 25270AA  25348.83340278  .00029940  00000+0  72149-3 0  9993",
        "tle_line2": "2 66612  42.9995 180.5594 0002075 271.9182 268.8256 15.40685905  4731"
      },
      "geometry": {
        "type": "Point",
        "coordinates": [
          -77.74858154077425,
          41.784313756389885
        ]
      }
    },
    {
      "type": "Feature",
      "properties": {
        "norad_id": 66613,
        "name": "STARLINK-36037",
        "group": "last-30-days",
        "lat": 32.94796968008139,
        "lon": -48.34644520306035,
        "alt_km": 439.67402382611454,
        "timestamp": "2025-12-15T15:53:18.661244+00:00",
        "meta_object_name": "STARLINK-36037",
        "meta_object_id": "2025-270AB",
        "meta_epoch": "2025-12-14T20:00:06.000192",
        "meta_mean_motion": 15.40665591,
        "meta_eccentricity": 0.00015456,
        "meta_inclination": 42.9998,
        "meta_ra_of_asc_node": 180.4982,
        "meta_arg_of_pericenter": 273.3335,
        "meta_mean_anomaly": 292.3246,
        "meta_ephemeris_type": 0,
        "meta_classification_type": "U",
        "meta_norad_cat_id": 66613,
        "meta_element_set_no": 999,
        "meta_rev_at_epoch": 473,
        "meta_bstar": 0.00071189011,
        "meta_mean_motion_dot": 0.00029515,
        "meta_mean_motion_ddot": 0,
        "tle_line1": "1 66613U 25270AB  25348.83340278  .00029515  00000+0  71189-3 0  9995",
        "tle_line2": "2 66613  42.9998 180.4982 0001545 273.3335 292.3246 15.40665591  4732"
      },
      "geometry": {
        "type": "Point",
        "coordinates": [
          -48.34644520306035,
          32.94796968008139
        ]
      }
    },
    {
      "type": "Feature",
      "properties": {
        "norad_id": 66614,
        "name": "STARLINK-36040",
        "group": "last-30-days",
        "lat": -20.711682142434885,
        "lon": 19.45460492829386,
        "alt_km": 416.39259320106976,
        "timestamp": "2025-12-15T15:53:18.661255+00:00",
        "meta_object_name": "STARLINK-36040",
        "meta_object_id": "2025-270AC",
        "meta_epoch": "2025-12-14T21:58:38.582976",
        "meta_mean_motion": 15.50609824,
        "meta_eccentricity": 0.00014792,
        "meta_inclination": 42.9987,
        "meta_ra_of_asc_node": 179.882,
        "meta_arg_of_pericenter": 282.6428,
        "meta_mean_anomaly": 77.4267,
        "meta_ephemeris_type": 0,
        "meta_classification_type": "U",
        "meta_norad_cat_id": 66614,
        "meta_element_set_no": 999,
        "meta_rev_at_epoch": 452,
        "meta_bstar": 0.0012770737,
        "meta_mean_motion_dot": 0.00075386,
        "meta_mean_motion_ddot": 0,
        "tle_line1": "1 66614U 25270AC  25348.91572434  .00075386  00000+0  12771-2 0  9994",
        "tle_line2": "2 66614  42.9987 179.8820 0001479 282.6428  77.4267 15.50609824  4526"
      },
      "geometry": {
        "type": "Point",
        "coordinates": [
          19.45460492829386,
          -20.711682142434885
        ]
      }
    }
  ]
}